{
  "Accounts": [
    {
      "seq": 1,
      "name": {
        "first": "Glenn",
        "last": "Pierce"
      },
      "street": "Dehko Pass",
      "city": "Gurigu",
      "state": "MD",
      "zip": 30054,
      "accno": "VKgZTD"
    },
    {
      "seq": 2,
      "name": {
        "first": "Celia",
        "last": "Matthews"
      },
      "street": "Kajkez Glen",
      "city": "Mognezse",
      "state": "NM",
      "zip": 15460,
      "accno": "xvHENH"
    },
    {
      "seq": 3,
      "name": {
        "first": "Ruby",
        "last": "Fleming"
      },
      "street": "Jica Point",
      "city": "Ginfipelu",
      "state": "OR",
      "zip": 860,
      "accno": "iFYbgC"
    },
    {
      "seq": 4,
      "name": {
        "first": "Elsie",
        "last": "Reynolds"
      },
      "street": "Vosit Loop",
      "city": "Fovuehi",
      "state": "MS",
      "zip": 76309,
      "accno": "svEuVc"
    },
    {
      "seq": 5,
      "name": {
        "first": "Pearl",
        "last": "Alexander"
      },
      "street": "Pefnup Drive",
      "city": "Durnoduh",
      "state": "PA",
      "zip": 41044,
      "accno": "iWvgqo"
    },
    {
      "seq": 6,
      "name": {
        "first": "Winifred",
        "last": "McBride"
      },
      "street": "Fimi Pass",
      "city": "Cizjofba",
      "state": "RI",
      "zip": 32006,
      "accno": "WnBccX"
    },
    {
      "seq": 7,
      "name": {
        "first": "Charlotte",
        "last": "Allen"
      },
      "street": "Sifec Terrace",
      "city": "Wemwudhom",
      "state": "NY",
      "zip": 39525,
      "accno": "vuExRU"
    },
    {
      "seq": 8,
      "name": {
        "first": "Isabel",
        "last": "Hunt"
      },
      "street": "Disuv Drive",
      "city": "Jeblukal",
      "state": "SD",
      "zip": 83337,
      "accno": "DVbEjW"
    },
    {
      "seq": 9,
      "name": {
        "first": "Maurice",
        "last": "Holloway"
      },
      "street": "Nobat Trail",
      "city": "Nielaraj",
      "state": "HI",
      "zip": 63986,
      "accno": "FmUuCm"
    },
    {
      "seq": 10,
      "name": {
        "first": "Alexander",
        "last": "Bridges"
      },
      "street": "Seri Way",
      "city": "Mijvavdi",
      "state": "NY",
      "zip": 58236,
      "accno": "rvfYxi"
    },
    {
      "seq": 11,
      "name": {
        "first": "Austin",
        "last": "Tate"
      },
      "street": "Mansef Path",
      "city": "Tanine",
      "state": "WV",
      "zip": 25150,
      "accno": "OXoUHj"
    },
    {
      "seq": 12,
      "name": {
        "first": "Ollie",
        "last": "McLaughlin"
      },
      "street": "Dalco Path",
      "city": "Jowmiva",
      "state": "CT",
      "zip": 33828,
      "accno": "DBibht"
    },
    {
      "seq": 13,
      "name": {
        "first": "Cornelia",
        "last": "Ross"
      },
      "street": "Suzal Trail",
      "city": "Piscaane",
      "state": "WV",
      "zip": 89750,
      "accno": "AGgCVQ"
    },
    {
      "seq": 14,
      "name": {
        "first": "Marvin",
        "last": "Murphy"
      },
      "street": "Valram Road",
      "city": "Topjaagu",
      "state": "VT",
      "zip": 96856,
      "accno": "XHdXrC"
    },
    {
      "seq": 15,
      "name": {
        "first": "Celia",
        "last": "Maxwell"
      },
      "street": "Akuoru River",
      "city": "Tiljeuw",
      "state": "MS",
      "zip": 55564,
      "accno": "kzsGWJ"
    },
    {
      "seq": 16,
      "name": {
        "first": "Mason",
        "last": "Reeves"
      },
      "street": "Sibo Plaza",
      "city": "Ifoefotak",
      "state": "VA",
      "zip": 42454,
      "accno": "xliKLo"
    },
    {
      "seq": 17,
      "name": {
        "first": "Justin",
        "last": "Hayes"
      },
      "street": "Muug Place",
      "city": "Taibehaz",
      "state": "NM",
      "zip": 30285,
      "accno": "xRsBvR"
    },
    {
      "seq": 18,
      "name": {
        "first": "Florence",
        "last": "Bennett"
      },
      "street": "Vangus Boulevard",
      "city": "Sifdebsep",
      "state": "AL",
      "zip": 26067,
      "accno": "xjdtRq"
    },
    {
      "seq": 19,
      "name": {
        "first": "Samuel",
        "last": "Hines"
      },
      "street": "Etoas Street",
      "city": "Zitnekiz",
      "state": "GA",
      "zip": 15966,
      "accno": "EcDKjZ"
    },
    {
      "seq": 20,
      "name": {
        "first": "Lola",
        "last": "Norris"
      },
      "street": "Vipe Street",
      "city": "Vubjoge",
      "state": "KY",
      "zip": 16968,
      "accno": "WpGEFx"
    },
    {
      "seq": 21,
      "name": {
        "first": "Mina",
        "last": "Howell"
      },
      "street": "Hunho Plaza",
      "city": "Nulwifib",
      "state": "NH",
      "zip": 53017,
      "accno": "LQHBsj"
    },
    {
      "seq": 22,
      "name": {
        "first": "Mitchell",
        "last": "Arnold"
      },
      "street": "Niba Loop",
      "city": "Havjewjis",
      "state": "MI",
      "zip": 62176,
      "accno": "zwhcKO"
    },
    {
      "seq": 23,
      "name": {
        "first": "Peter",
        "last": "Mack"
      },
      "street": "Jezbe Drive",
      "city": "Emijozu",
      "state": "NV",
      "zip": 76532,
      "accno": "polwdl"
    },
    {
      "seq": 24,
      "name": {
        "first": "Allie",
        "last": "Wilkerson"
      },
      "street": "Zojeva Terrace",
      "city": "Dezlukeh",
      "state": "NM",
      "zip": 38142,
      "accno": "FSrLGa"
    },
    {
      "seq": 25,
      "name": {
        "first": "Frances",
        "last": "Hill"
      },
      "street": "Liide Parkway",
      "city": "Epekohe",
      "state": "AL",
      "zip": 95273,
      "accno": "YqtKCQ"
    },
    {
      "seq": 26,
      "name": {
        "first": "Maggie",
        "last": "Brown"
      },
      "street": "Owsi Way",
      "city": "Lajikfe",
      "state": "DE",
      "zip": 59382,
      "accno": "yMnHps"
    },
    {
      "seq": 27,
      "name": {
        "first": "Rebecca",
        "last": "Ferguson"
      },
      "street": "Jihi Court",
      "city": "Numenle",
      "state": "CT",
      "zip": 25800,
      "accno": "CZhYFW"
    },
    {
      "seq": 28,
      "name": {
        "first": "Blake",
        "last": "Holt"
      },
      "street": "Kibmu Lane",
      "city": "Zafsaze",
      "state": "MN",
      "zip": 29898,
      "accno": "nnDNQB"
    },
    {
      "seq": 29,
      "name": {
        "first": "Nina",
        "last": "Warner"
      },
      "street": "Larba Way",
      "city": "Redavuja",
      "state": "MD",
      "zip": 49534,
      "accno": "haLRUi"
    },
    {
      "seq": 30,
      "name": {
        "first": "Barry",
        "last": "Moore"
      },
      "street": "Foka Plaza",
      "city": "Kanpaoni",
      "state": "WI",
      "zip": 36167,
      "accno": "UoTmKf"
    },
    {
      "seq": 31,
      "name": {
        "first": "Willie",
        "last": "Curry"
      },
      "street": "Jendo Terrace",
      "city": "Ihedumor",
      "state": "DE",
      "zip": 24316,
      "accno": "sRmgXH"
    },
    {
      "seq": 32,
      "name": {
        "first": "Beulah",
        "last": "Lambert"
      },
      "street": "Fimdol Junction",
      "city": "Afmaiwi",
      "state": "PA",
      "zip": 88839,
      "accno": "PmjglX"
    },
    {
      "seq": 33,
      "name": {
        "first": "Todd",
        "last": "King"
      },
      "street": "Tawo View",
      "city": "Sigoduwe",
      "state": "UT",
      "zip": 54904,
      "accno": "YFJfSf"
    },
    {
      "seq": 34,
      "name": {
        "first": "Charles",
        "last": "Howard"
      },
      "street": "Pudgiz Loop",
      "city": "Hoshomdof",
      "state": "OH",
      "zip": 60585,
      "accno": "NDUiYT"
    },
    {
      "seq": 35,
      "name": {
        "first": "Eddie",
        "last": "Washington"
      },
      "street": "Odofu Trail",
      "city": "Ipomedek",
      "state": "AL",
      "zip": 66912,
      "accno": "uxyeMQ"
    },
    {
      "seq": 36,
      "name": {
        "first": "Ricardo",
        "last": "Ray"
      },
      "street": "Hovo Junction",
      "city": "Bewdohipu",
      "state": "NC",
      "zip": 56174,
      "accno": "eJUvnH"
    },
    {
      "seq": 37,
      "name": {
        "first": "Lucas",
        "last": "Stanley"
      },
      "street": "Lurer Court",
      "city": "Hunobne",
      "state": "MS",
      "zip": 91828,
      "accno": "jSluHM"
    },
    {
      "seq": 38,
      "name": {
        "first": "Delia",
        "last": "Hughes"
      },
      "street": "Ipulal Glen",
      "city": "Tibdaga",
      "state": "NY",
      "zip": 95299,
      "accno": "UAMfSi"
    },
    {
      "seq": 39,
      "name": {
        "first": "Travis",
        "last": "Fields"
      },
      "street": "Aroc Glen",
      "city": "Tatueb",
      "state": "TX",
      "zip": 34155,
      "accno": "LFZSqH"
    },
    {
      "seq": 40,
      "name": {
        "first": "Bobby",
        "last": "Farmer"
      },
      "street": "Mabiv Highway",
      "city": "Apesivi",
      "state": "SD",
      "zip": 49555,
      "accno": "caNJRI"
    },
    {
      "seq": 41,
      "name": {
        "first": "Harriett",
        "last": "Miles"
      },
      "street": "Seder Drive",
      "city": "Eremerbuc",
      "state": "AR",
      "zip": 91448,
      "accno": "cYxRsm"
    },
    {
      "seq": 42,
      "name": {
        "first": "Ophelia",
        "last": "Owens"
      },
      "street": "Foof Center",
      "city": "Womejobe",
      "state": "SC",
      "zip": 57718,
      "accno": "xDqsjx"
    },
    {
      "seq": 43,
      "name": {
        "first": "Bill",
        "last": "Dean"
      },
      "street": "Lizet Drive",
      "city": "Fimekon",
      "state": "TN",
      "zip": 17182,
      "accno": "ctNscU"
    },
    {
      "seq": 44,
      "name": {
        "first": "Evelyn",
        "last": "Murray"
      },
      "street": "Puhcu Lane",
      "city": "Guuluav",
      "state": "MD",
      "zip": 71299,
      "accno": "vOzknz"
    },
    {
      "seq": 45,
      "name": {
        "first": "Lina",
        "last": "Ryan"
      },
      "street": "Hewo Highway",
      "city": "Hahigren",
      "state": "DC",
      "zip": 51114,
      "accno": "uGAmYL"
    },
    {
      "seq": 46,
      "name": {
        "first": "Ruth",
        "last": "Marshall"
      },
      "street": "Cesi Terrace",
      "city": "Akcedube",
      "state": "MA",
      "zip": 86079,
      "accno": "ZQNoef"
    },
    {
      "seq": 47,
      "name": {
        "first": "Darrell",
        "last": "Swanson"
      },
      "street": "Cemtek Terrace",
      "city": "Izuhijbe",
      "state": "MA",
      "zip": 7095,
      "accno": "hhjxMY"
    },
    {
      "seq": 48,
      "name": {
        "first": "Miguel",
        "last": "Mann"
      },
      "street": "Konese Parkway",
      "city": "Azuvoti",
      "state": "PA",
      "zip": 56285,
      "accno": "hxnHuJ"
    },
    {
      "seq": 49,
      "name": {
        "first": "Lenora",
        "last": "Ingram"
      },
      "street": "Bijike Point",
      "city": "Ideavawe",
      "state": "MD",
      "zip": 6744,
      "accno": "HrQqIO"
    },
    {
      "seq": 50,
      "name": {
        "first": "Nelle",
        "last": "Castillo"
      },
      "street": "Wipi Mill",
      "city": "Rijivo",
      "state": "NV",
      "zip": 71809,
      "accno": "HcpLXm"
    },
    {
      "seq": 51,
      "name": {
        "first": "Louis",
        "last": "Moody"
      },
      "street": "Awsi Way",
      "city": "Sukabuule",
      "state": "KS",
      "zip": 96226,
      "accno": "tBZFlg"
    },
    {
      "seq": 52,
      "name": {
        "first": "Benjamin",
        "last": "Benson"
      },
      "street": "Kivmaj Pass",
      "city": "Buogupeg",
      "state": "LA",
      "zip": 27499,
      "accno": "XiscWa"
    },
    {
      "seq": 53,
      "name": {
        "first": "Anthony",
        "last": "Blake"
      },
      "street": "Manot Key",
      "city": "Ritotka",
      "state": "WA",
      "zip": 48507,
      "accno": "aIJUCP"
    },
    {
      "seq": 54,
      "name": {
        "first": "Sam",
        "last": "Ellis"
      },
      "street": "Fuje Road",
      "city": "Cipupa",
      "state": "WI",
      "zip": 9990,
      "accno": "DLeujf"
    },
    {
      "seq": 55,
      "name": {
        "first": "Kathryn",
        "last": "Clarke"
      },
      "street": "Vezewo Heights",
      "city": "Wovozsu",
      "state": "OR",
      "zip": 68614,
      "accno": "JwlRdG"
    },
    {
      "seq": 56,
      "name": {
        "first": "Frederick",
        "last": "Norman"
      },
      "street": "Sipez Grove",
      "city": "Awuwani",
      "state": "KS",
      "zip": 42824,
      "accno": "CVIKch"
    },
    {
      "seq": 57,
      "name": {
        "first": "Patrick",
        "last": "Fisher"
      },
      "street": "Odego Circle",
      "city": "Paffamdi",
      "state": "WI",
      "zip": 35255,
      "accno": "taBIKU"
    },
    {
      "seq": 58,
      "name": {
        "first": "Emma",
        "last": "Curtis"
      },
      "street": "Tikbu Pike",
      "city": "Fapibig",
      "state": "UT",
      "zip": 65826,
      "accno": "gmYiBs"
    },
    {
      "seq": 59,
      "name": {
        "first": "Josie",
        "last": "Morris"
      },
      "street": "Keezi Street",
      "city": "Jujonna",
      "state": "KS",
      "zip": 89007,
      "accno": "lZKtko"
    },
    {
      "seq": 60,
      "name": {
        "first": "Jessie",
        "last": "Sherman"
      },
      "street": "Bezoz Square",
      "city": "Ufuvzo",
      "state": "MI",
      "zip": 61445,
      "accno": "rUfTJb"
    },
    {
      "seq": 61,
      "name": {
        "first": "Claudia",
        "last": "Silva"
      },
      "street": "Ozewed Drive",
      "city": "Zelugin",
      "state": "DE",
      "zip": 10604,
      "accno": "PJeScb"
    },
    {
      "seq": 62,
      "name": {
        "first": "Corey",
        "last": "Schmidt"
      },
      "street": "Jumpa Street",
      "city": "Relmisob",
      "state": "OK",
      "zip": 89929,
      "accno": "lYoWkf"
    },
    {
      "seq": 63,
      "name": {
        "first": "Addie",
        "last": "Pittman"
      },
      "street": "Isoda Parkway",
      "city": "Inliga",
      "state": "GA",
      "zip": 33355,
      "accno": "nPuZIp"
    },
    {
      "seq": 64,
      "name": {
        "first": "Timothy",
        "last": "Cummings"
      },
      "street": "Cipewu Heights",
      "city": "Udasoda",
      "state": "WV",
      "zip": 68154,
      "accno": "ifVrWz"
    },
    {
      "seq": 65,
      "name": {
        "first": "Bill",
        "last": "Jimenez"
      },
      "street": "Bomi View",
      "city": "Giwjire",
      "state": "MA",
      "zip": 44381,
      "accno": "PMCBMA"
    },
    {
      "seq": 66,
      "name": {
        "first": "Eva",
        "last": "Simmons"
      },
      "street": "Vanetu Point",
      "city": "Bidlodsev",
      "state": "TX",
      "zip": 91031,
      "accno": "SMoLcg"
    },
    {
      "seq": 67,
      "name": {
        "first": "Jessie",
        "last": "Powers"
      },
      "street": "Deida Grove",
      "city": "Cuddeta",
      "state": "AK",
      "zip": 25957,
      "accno": "wkMFRC"
    },
    {
      "seq": 68,
      "name": {
        "first": "Louisa",
        "last": "Lloyd"
      },
      "street": "Zouze View",
      "city": "Homokhuh",
      "state": "IN",
      "zip": 82024,
      "accno": "bHBvis"
    },
    {
      "seq": 69,
      "name": {
        "first": "Gary",
        "last": "Aguilar"
      },
      "street": "Fidiv View",
      "city": "Kajodde",
      "state": "IL",
      "zip": 57862,
      "accno": "IWiqHm"
    },
    {
      "seq": 70,
      "name": {
        "first": "Lester",
        "last": "Baldwin"
      },
      "street": "Kadca Road",
      "city": "Riavomu",
      "state": "KY",
      "zip": 74805,
      "accno": "YIqVoE"
    },
    {
      "seq": 71,
      "name": {
        "first": "Brian",
        "last": "Barnett"
      },
      "street": "Sudo Pass",
      "city": "Nanravo",
      "state": "AL",
      "zip": 52993,
      "accno": "rQPhoi"
    },
    {
      "seq": 72,
      "name": {
        "first": "Lydia",
        "last": "Hale"
      },
      "street": "Pofon Court",
      "city": "Apbovis",
      "state": "MI",
      "zip": 7239,
      "accno": "PYQQGp"
    },
    {
      "seq": 73,
      "name": {
        "first": "Alta",
        "last": "Hubbard"
      },
      "street": "Hebmus Way",
      "city": "Vackewu",
      "state": "CA",
      "zip": 36396,
      "accno": "FtLkhx"
    },
    {
      "seq": 74,
      "name": {
        "first": "Sadie",
        "last": "Edwards"
      },
      "street": "Vasere Place",
      "city": "Ponazwu",
      "state": "AZ",
      "zip": 83639,
      "accno": "cWzbdd"
    },
    {
      "seq": 75,
      "name": {
        "first": "Michael",
        "last": "Lambert"
      },
      "street": "Gisrip Trail",
      "city": "Amaguvmid",
      "state": "MD",
      "zip": 68348,
      "accno": "rCphZX"
    },
    {
      "seq": 76,
      "name": {
        "first": "Lawrence",
        "last": "Roberson"
      },
      "street": "Ruzgod Court",
      "city": "Legbehmak",
      "state": "VA",
      "zip": 37311,
      "accno": "rFGBwo"
    },
    {
      "seq": 77,
      "name": {
        "first": "Harriet",
        "last": "Kim"
      },
      "street": "Bucaji Key",
      "city": "Okiseaca",
      "state": "NV",
      "zip": 35095,
      "accno": "xlHtmW"
    },
    {
      "seq": 78,
      "name": {
        "first": "May",
        "last": "West"
      },
      "street": "Zewof Heights",
      "city": "Nerovo",
      "state": "AR",
      "zip": 94261,
      "accno": "HENffd"
    },
    {
      "seq": 79,
      "name": {
        "first": "Olive",
        "last": "Austin"
      },
      "street": "Wubsak Highway",
      "city": "Mozoga",
      "state": "KS",
      "zip": 74486,
      "accno": "sngRBe"
    },
    {
      "seq": 80,
      "name": {
        "first": "Bertie",
        "last": "Jenkins"
      },
      "street": "Dinnor Turnpike",
      "city": "Osdivwav",
      "state": "MT",
      "zip": 93927,
      "accno": "CDfaFS"
    },
    {
      "seq": 81,
      "name": {
        "first": "Keith",
        "last": "Warner"
      },
      "street": "Evgah View",
      "city": "Epuedaz",
      "state": "KY",
      "zip": 40045,
      "accno": "VlDGJH"
    },
    {
      "seq": 82,
      "name": {
        "first": "Edwin",
        "last": "Peterson"
      },
      "street": "Naju Key",
      "city": "Eluwoza",
      "state": "MS",
      "zip": 67263,
      "accno": "xQGLlV"
    },
    {
      "seq": 83,
      "name": {
        "first": "Michael",
        "last": "Weaver"
      },
      "street": "Larcoj Boulevard",
      "city": "Topadfo",
      "state": "OH",
      "zip": 63652,
      "accno": "iWkVEd"
    },
    {
      "seq": 84,
      "name": {
        "first": "Norman",
        "last": "Pearson"
      },
      "street": "Kalar Pike",
      "city": "Umopiku",
      "state": "KY",
      "zip": 90160,
      "accno": "eHFGYD"
    },
    {
      "seq": 85,
      "name": {
        "first": "Howard",
        "last": "Dixon"
      },
      "street": "Rida Key",
      "city": "Pumofusu",
      "state": "WA",
      "zip": 31303,
      "accno": "NXAkLR"
    },
    {
      "seq": 86,
      "name": {
        "first": "Barry",
        "last": "Hansen"
      },
      "street": "Dutu Boulevard",
      "city": "Huasomu",
      "state": "VT",
      "zip": 24818,
      "accno": "omUVPP"
    },
    {
      "seq": 87,
      "name": {
        "first": "Dollie",
        "last": "Hill"
      },
      "street": "Ducpe Park",
      "city": "Coashiw",
      "state": "OR",
      "zip": 72206,
      "accno": "CFfRsw"
    },
    {
      "seq": 88,
      "name": {
        "first": "Phoebe",
        "last": "Steele"
      },
      "street": "Pifwa Key",
      "city": "Kubihvo",
      "state": "MD",
      "zip": 77192,
      "accno": "kMggZQ"
    },
    {
      "seq": 89,
      "name": {
        "first": "Ray",
        "last": "Thomas"
      },
      "street": "Zilcuj Center",
      "city": "Luvnetafa",
      "state": "HI",
      "zip": 79940,
      "accno": "tRbGyC"
    },
    {
      "seq": 90,
      "name": {
        "first": "Stanley",
        "last": "Cox"
      },
      "street": "Nawro Loop",
      "city": "Etiigoti",
      "state": "IA",
      "zip": 80090,
      "accno": "NrvqBL"
    },
    {
      "seq": 91,
      "name": {
        "first": "Adele",
        "last": "Powers"
      },
      "street": "Dukti Trail",
      "city": "Wifisber",
      "state": "IN",
      "zip": 33845,
      "accno": "NPBBhC"
    },
    {
      "seq": 92,
      "name": {
        "first": "Hallie",
        "last": "Bass"
      },
      "street": "Kikzew Grove",
      "city": "Ocazihon",
      "state": "OH",
      "zip": 7330,
      "accno": "fwHkcT"
    },
    {
      "seq": 93,
      "name": {
        "first": "Lura",
        "last": "Baldwin"
      },
      "street": "Konil Circle",
      "city": "Gihtuav",
      "state": "IL",
      "zip": 5986,
      "accno": "eTbNbH"
    },
    {
      "seq": 94,
      "name": {
        "first": "Christina",
        "last": "Clark"
      },
      "street": "Midah Heights",
      "city": "Fatergo",
      "state": "OK",
      "zip": 3399,
      "accno": "uSMQGC"
    },
    {
      "seq": 95,
      "name": {
        "first": "Dylan",
        "last": "Williamson"
      },
      "street": "Wigvak Boulevard",
      "city": "Nacfeula",
      "state": "KY",
      "zip": 72410,
      "accno": "FhBKGw"
    },
    {
      "seq": 96,
      "name": {
        "first": "Francisco",
        "last": "Houston"
      },
      "street": "Jelme Terrace",
      "city": "Hugrouko",
      "state": "WI",
      "zip": 81968,
      "accno": "UFkfWZ"
    },
    {
      "seq": 97,
      "name": {
        "first": "Ray",
        "last": "McBride"
      },
      "street": "Kosuc Court",
      "city": "Gufiteji",
      "state": "DC",
      "zip": 98291,
      "accno": "LPnPKi"
    },
    {
      "seq": 98,
      "name": {
        "first": "Lura",
        "last": "Griffin"
      },
      "street": "Ikgah Key",
      "city": "Bozosu",
      "state": "AK",
      "zip": 42894,
      "accno": "CCVcUH"
    },
    {
      "seq": 99,
      "name": {
        "first": "Charlotte",
        "last": "Briggs"
      },
      "street": "Zuwaw Road",
      "city": "Wohohza",
      "state": "GA",
      "zip": 10002,
      "accno": "BfvoaQ"
    },
    {
      "seq": 100,
      "name": {
        "first": "Ray",
        "last": "Phelps"
      },
      "street": "Fona River",
      "city": "Habuli",
      "state": "NC",
      "zip": 6766,
      "accno": "rHoeOT"
    }
  ]

}